{
  "type": "FeatureCollection",
  "features": [
    {
      "type": "Feature",
      "properties": {
        "norad_id": 66815,
        "name": "STARLINK-35985",
        "group": "last-30-days",
        "lat": -42.30107730601723,
        "lon": 92.54151159369765,
        "alt_km": 403.97459421591066,
        "timestamp": "2025-12-22T04:03:37.887844+00:00",
        "meta_object_name": "STARLINK-35985",
        "meta_object_id": "2025-278AA",
        "meta_epoch": "2025-12-21T20:00:01.999008",
        "meta_mean_motion": 15.56609427,
        "meta_eccentricity": 0.0001291,
        "meta_inclination": 42.9992,
        "meta_ra_of_asc_node": 196.9557,
        "meta_arg_of_pericenter": 265.4097,
        "meta_mean_anomaly": 272.1242,
        "meta_ephemeris_type": 0,
        "meta_classification_type": "U",
        "meta_norad_cat_id": 66815,
        "meta_element_set_no": 999,
        "meta_rev_at_epoch": 450,
        "meta_bstar": -0.031283,
        "meta_mean_motion_dot": -0.02041389,
        "meta_mean_motion_ddot": 0,
        "tle_line1": "1 66815U 25278AA  25355.83335647 -.02041389  00000+0 -31283-1 0  9995",
        "tle_line2": "2 66815  42.9992 196.9557 0001291 265.4097 272.1242 15.56609427  4505"
      },
      "geometry": {
        "type": "Point",
        "coordinates": [
          92.54151159369765,
          -42.30107730601723
        ]
      }
    },
    {
      "type": "Feature",
      "properties": {
        "norad_id": 66816,
        "name": "STARLINK-36098",
        "group": "last-30-days",
        "lat": -40.73444314118008,
        "lon": 82.5442083018896,
        "alt_km": 404.0783503376797,
        "timestamp": "2025-12-22T04:03:37.887855+00:00",
        "meta_object_name": "STARLINK-36098",
        "meta_object_id": "2025-278AB",
        "meta_epoch": "2025-12-21T20:00:01.999008",
        "meta_mean_motion": 15.56614795,
        "meta_eccentricity": 0.0001101,
        "meta_inclination": 42.9988,
        "meta_ra_of_asc_node": 196.9756,
        "meta_arg_of_pericenter": 269.9678,
        "meta_mean_anomaly": 259.8972,
        "meta_ephemeris_type": 0,
        "meta_classification_type": "U",
        "meta_norad_cat_id": 66816,
        "meta_element_set_no": 999,
        "meta_rev_at_epoch": 426,
        "meta_bstar": -0.031413,
        "meta_mean_motion_dot": -0.02049205,
        "meta_mean_motion_ddot": 0,
        "tle_line1": "1 66816U 25278AB  25355.83335647 -.02049205  00000+0 -31413-1 0  9996",
        "tle_line2": "2 66816  42.9988 196.9756 0001101 269.9678 259.8972 15.56614795  4265"
      },
      "geometry": {
        "type": "Point",
        "coordinates": [
          82.5442083018896,
          -40.73444314118008
        ]
      }
    },
    {
      "type": "Feature",
      "properties": {
        "norad_id": 66817,
        "name": "STARLINK-35995",
        "group": "last-30-days",
        "lat": -41.62647614943145,
        "lon": 87.48162212867412,
        "alt_km": 403.99948707994827,
        "timestamp": "2025-12-22T04:03:37.887866+00:00",
        "meta_object_name": "STARLINK-35995",
        "meta_object_id": "2025-278AC",
        "meta_epoch": "2025-12-21T20:00:01.999008",
        "meta_mean_motion": 15.56614187,
        "meta_eccentricity": 0.0001234,
        "meta_inclination": 42.999,
        "meta_ra_of_asc_node": 196.9657,
        "meta_arg_of_pericenter": 267.5212,
        "meta_mean_anomaly": 266.1765,
        "meta_ephemeris_type": 0,
        "meta_classification_type": "U",
        "meta_norad_cat_id": 66817,
        "meta_element_set_no": 999,
        "meta_rev_at_epoch": 442,
        "meta_bstar": -0.031381,
        "meta_mean_motion_dot": -0.02047401,
        "meta_mean_motion_ddot": 0,
        "tle_line1": "1 66817U 25278AC  25355.83335647 -.02047401  00000+0 -31381-1 0  9997",
        "tle_line2": "2 66817  42.9990 196.9657 0001234 267.5212 266.1765 15.56614187  4428"
      },
      "geometry": {
        "type": "Point",
        "coordinates": [
          87.48162212867412,
          -41.62647614943145
        ]
      }
    },
    {
      "type": "Feature",
      "properties": {
        "norad_id": 66818,
        "name": "STARLINK-35994",
        "group": "last-30-days",
        "lat": -41.20670518393905,
        "lon": 84.99581727968446,
        "alt_km": 403.9530627114809,
        "timestamp": "2025-12-22T04:03:37.887879+00:00",
        "meta_object_name": "STARLINK-35994",
        "meta_object_id": "2025-278AD",
        "meta_epoch": "2025-12-21T20:00:01.999008",
        "meta_mean_motion": 15.56611924,
        "meta_eccentricity": 0.0001295,
        "meta_inclination": 42.9988,
        "meta_ra_of_asc_node": 196.9711,
        "meta_arg_of_pericenter": 267.7697,
        "meta_mean_anomaly": 264.0132,
        "meta_ephemeris_type": 0,
        "meta_classification_type": "U",
        "meta_norad_cat_id": 66818,
        "meta_element_set_no": 999,
        "meta_rev_at_epoch": 442,
        "meta_bstar": -0.031359,
        "meta_mean_motion_dot": -0.02046029,
        "meta_mean_motion_ddot": 0,
        "tle_line1": "1 66818U 25278AD  25355.83335647 -.02046029  00000+0 -31359-1 0  9998",
        "tle_line2": "2 66818  42.9988 196.9711 0001295 267.7697 264.0132 15.56611924  4424"
      },
      "geometry": {
        "type": "Point",
        "coordinates": [
          84.99581727968446,
          -41.20670518393905
        ]
      }
    },
    {
      "type": "Feature",
      "properties": {
        "norad_id": 66819,
        "name": "STARLINK-35989",
        "group": "last-30-days",
        "lat": -41.991370746071226,
        "lon": 89.99720731338917,
        "alt_km": 403.9766579607103,
        "timestamp": "2025-12-22T04:03:37.887889+00:00",
        "meta_object_name": "STARLINK-35989",
        "meta_object_id": "2025-278AE",
        "meta_epoch": "2025-12-21T20:00:01.999008",
        "meta_mean_motion": 15.56610816,
        "meta_eccentricity": 0.0001298,
        "meta_inclination": 42.9989,
        "meta_ra_of_asc_node": 196.9605,
        "meta_arg_of_pericenter": 269.7611,
        "meta_mean_anomaly": 265.8564,
        "meta_ephemeris_type": 0,
        "meta_classification_type": "U",
        "meta_norad_cat_id": 66819,
        "meta_element_set_no": 999,
        "meta_rev_at_epoch": 442,
        "meta_bstar": -0.031327,
        "meta_mean_motion_dot": -0.02044053,
        "meta_mean_motion_ddot": 0,
        "tle_line1": "1 66819U 25278AE  25355.83335647 -.02044053  00000+0 -31327-1 0  9999",
        "tle_line2": "2 66819  42.9989 196.9605 0001298 269.7611 265.8564 15.56610816  4426"
      },
      "geometry": {
        "type": "Point",
        "coordinates": [
          89.99720731338917,
          -41.991370746071226
        ]
      }
    },
    {
      "type": "Feature",
      "properties": {
        "norad_id": 66820,
        "name": "KOMPSAT-7",
        "group": "last-30-days",
        "lat": 58.36087563932522,
        "lon": 134.46118717650887,
        "alt_km": 562.1133219861194,
        "timestamp": "2025-12-22T04:03:37.887899+00:00",
        "meta_object_name": "KOMPSAT-7",
        "meta_object_id": "2025-279A",
        "meta_epoch": "2025-12-21T14:43:15.384864",
        "meta_mean_motion": 15.00649834,
        "meta_eccentricity": 0.00110253,
        "meta_inclination": 97.6444,
        "meta_ra_of_asc_node": 301.3241,
        "meta_arg_of_pericenter": 234.4274,
        "meta_mean_anomaly": 125.5923,
        "meta_ephemeris_type": 0,
        "meta_classification_type": "U",
        "meta_norad_cat_id": 66820,
        "meta_element_set_no": 999,
        "meta_rev_at_epoch": 298,
        "meta_bstar": 0.00020207224,
        "meta_mean_motion_dot": 2.499e-05,
        "meta_mean_motion_ddot": 0,
        "tle_line1": "1 66820U 25279A   25355.61337251  .00002499  00000+0  20207-3 0  9992",
        "tle_line2": "2 66820  97.6444 301.3241 0011025 234.4274 125.5923 15.00649834  2983"
      },
      "geometry": {
        "type": "Point",
        "coordinates": [
          134.46118717650887,
          58.36087563932522
        ]
      }
    },
    {
      "type": "Feature",
      "properties": {
        "norad_id": 66821,
        "name": "STARLINK-35966",
        "group": "last-30-days",
        "lat": 42.77188116004373,
        "lon": -27.101126612121035,
        "alt_km": 407.1095222275935,
        "timestamp": "2025-12-22T04:03:37.887912+00:00",
        "meta_object_name": "STARLINK-35966",
        "meta_object_id": "2025-280A",
        "meta_epoch": "2025-12-21T20:00:01.999008",
        "meta_mean_motion": 15.5255383,
        "meta_eccentricity": 0.0003412,
        "meta_inclination": 70,
        "meta_ra_of_asc_node": 173.5095,
        "meta_arg_of_pericenter": 274.1701,
        "meta_mean_anomaly": 143.063,
        "meta_ephemeris_type": 0,
        "meta_classification_type": "U",
        "meta_norad_cat_id": 66821,
        "meta_element_set_no": 999,
        "meta_rev_at_epoch": 435,
        "meta_bstar": -0.0013546,
        "meta_mean_motion_dot": -0.00082749,
        "meta_mean_motion_ddot": 0,
        "tle_line1": "1 66821U 25280A   25355.83335647 -.00082749  00000+0 -13546-2 0  9991",
        "tle_line2": "2 66821  70.0000 173.5095 0003412 274.1701 143.0630 15.52553830  4350"
      },
      "geometry": {
        "type": "Point",
        "coordinates": [
          -27.101126612121035,
          42.77188116004373
        ]
      }
    }
  ]
}